{
"type": "FeatureCollection",
"name": "BatasLine",
"crs": { "type": "name", "properties": { "name": "urn:ogc:def:crs:OGC:1.3:CRS84" } },
"features": [
{ "type": "Feature", "properties": { "id": 1 }, "geometry": { "type": "MultiLineString", "coordinates": [ [ [ 107.76565240577753, -6.924501596513625 ], [ 107.765556564851948, -6.924672851812673 ], [ 107.766304124071695, -6.927489041145757 ], [ 107.766323292256814, -6.927888634215837 ], [ 107.76670665595924, -6.929068383208894 ], [ 107.76778965841865, -6.933073799293394 ], [ 107.767981340269856, -6.933530471649388 ], [ 107.768249694861566, -6.933264079495514 ], [ 107.768326367602029, -6.93379686365264 ], [ 107.76871931539705, -6.934101311471923 ], [ 107.771786225016569, -6.933007201204497 ], [ 107.771901234127284, -6.932769350810171 ], [ 107.771719136368631, -6.932112883098878 ], [ 107.771144090814971, -6.929896108562801 ], [ 107.771057833981942, -6.928212114072175 ], [ 107.770837399853036, -6.927108476002311 ], [ 107.769763981486207, -6.925738438943177 ], [ 107.769783149671326, -6.924958277172935 ], [ 107.76996524742998, -6.924358883716931 ], [ 107.769725645115955, -6.923730946898624 ], [ 107.76948604280193, -6.923550177053584 ], [ 107.769141015469728, -6.923550177053584 ], [ 107.767818410696336, -6.923864145687494 ], [ 107.76670665595924, -6.924111514767064 ], [ 107.765652405777473, -6.924501615096017 ] ] ] } }
]
}
