{
"type": "FeatureCollection",
"name": "Batas",
"crs": { "type": "name", "properties": { "name": "urn:ogc:def:crs:OGC:1.3:CRS84" } },
"features": [
{ "type": "Feature", "properties": { "id": 1 }, "geometry": { "type": "MultiPolygon", "coordinates": [ [ [ [ 107.765570214450463, -6.924820918045421 ], [ 107.765545361312988, -6.924635879217361 ], [ 107.765545361312988, -6.924635879217361 ], [ 107.765657200431505, -6.924500184030653 ], [ 107.767508759171832, -6.923895723179359 ], [ 107.769173919381203, -6.92356265258344 ], [ 107.769497010168095, -6.923587324487498 ], [ 107.769720688405187, -6.923747691832423 ], [ 107.769919513504831, -6.924364488804918 ], [ 107.769720688405187, -6.924981284971031 ], [ 107.769733114973931, -6.92573377520159 ], [ 107.770826653021857, -6.927090721763396 ], [ 107.771075184396409, -6.928213283695339 ], [ 107.7711124641026, -6.929853946326854 ], [ 107.771360995477139, -6.930803801030063 ], [ 107.7717586456764, -6.932259418808849 ], [ 107.771882911363647, -6.932752847544013 ], [ 107.77183320508874, -6.932987226012212 ], [ 107.771472834595656, -6.933196932963886 ], [ 107.770404149685177, -6.933591675207951 ], [ 107.769273331931032, -6.933949410080967 ], [ 107.768689283200885, -6.93407276687075 ], [ 107.768577444082325, -6.934011088479896 ], [ 107.768341339276532, -6.933813717574904 ], [ 107.768254353295433, -6.933258611461321 ], [ 107.767968542214703, -6.933542332445529 ], [ 107.767794570252534, -6.933098247351193 ], [ 107.766812871323154, -6.929372850357372 ], [ 107.766328235142794, -6.927904887826422 ], [ 107.766303382005333, -6.927510140819897 ], [ 107.766166689749369, -6.926868676229532 ], [ 107.765570214450463, -6.924820918045421 ] ] ] ] } }
]
}
