{
"type": "FeatureCollection",
"name": "pipeline",
"crs": { "type": "name", "properties": { "name": "urn:ogc:def:crs:OGC:1.3:CRS84" } },
"features": [
{ "type": "Feature", "properties": { "id": 1, "name": "SITU - WTP", "type": "8" }, "geometry": { "type": "MultiLineString", "coordinates": [ [ [ 107.767242058201106, -6.92897628429356 ], [ 107.767365738109035, -6.928903770596428 ], [ 107.76736453733325, -6.928588882220604 ], [ 107.767065944416345, -6.927469785111356 ], [ 107.767203633375331, -6.927441176877761 ], [ 107.767160405446347, -6.927247276582089 ], [ 107.767046732003479, -6.927266348745855 ], [ 107.767025918556186, -6.927178934655595 ] ] ] } },
{ "type": "Feature", "properties": { "id": 2, "name": "wtp - tank", "type": "6" }, "geometry": { "type": "MultiLineString", "coordinates": [ [ [ 107.766887558409991, -6.926771263253498 ], [ 107.766870274488099, -6.926673283356149 ] ] ] } },
{ "type": "Feature", "properties": { "id": 3, "name": "tank - pump", "type": "6" }, "geometry": { "type": "MultiLineString", "coordinates": [ [ [ 107.766859642601929, -6.926593702894593 ], [ 107.766851910321108, -6.926571126874684 ] ] ] } },
{ "type": "Feature", "properties": { "id": 4, "name": "pump - gwt", "type": "6" }, "geometry": { "type": "MultiLineString", "coordinates": [ [ [ 107.768779067610424, -6.923911889930071 ], [ 107.768392908408501, -6.924093402122798 ], [ 107.767584284211296, -6.924560989685745 ], [ 107.767272941190356, -6.924887232247636 ], [ 107.767207745429573, -6.925052334672735 ], [ 107.767232763996105, -6.926511490552035 ], [ 107.7668773208555, -6.926542347079559 ] ] ] } },
{ "type": "Feature", "properties": { "id": 5, "name": "keluar ground tank", "type": "4" }, "geometry": { "type": "MultiLineString", "coordinates": [ [ [ 107.768812463765016, -6.923999295868859 ], [ 107.768805599344844, -6.923991497143473 ], [ 107.768248064966485, -6.924258065450872 ] ] ] } },
{ "type": "Feature", "properties": { "id": 6, "name": "tank - asrama", "type": "4" }, "geometry": { "type": "MultiLineString", "coordinates": [ [ [ 107.768248064966443, -6.924257783069272 ], [ 107.767537777546707, -6.92493465128361 ], [ 107.767446751525767, -6.925278026693964 ], [ 107.767428546321597, -6.925535558087702 ], [ 107.767430821972098, -6.926305892382281 ], [ 107.767731207841251, -6.926703483783995 ], [ 107.767761929123367, -6.9267441465221 ] ] ] } },
{ "type": "Feature", "properties": { "id": 7, "name": "asrama 4", "type": "2" }, "geometry": { "type": "MultiLineString", "coordinates": [ [ [ 107.767764671320123, -6.926732497726433 ], [ 107.76787694211869, -6.926644152132351 ], [ 107.76807410059422, -6.9264742567126 ], [ 107.768297273035316, -6.92628397376982 ], [ 107.768521814632436, -6.926093690750278 ], [ 107.768539613661474, -6.926110000726389 ] ] ] } },
{ "type": "Feature", "properties": { "id": 8, "name": "asrama 3", "type": "2" }, "geometry": { "type": "MultiLineString", "coordinates": [ [ [ 107.768291796410978, -6.926290769590529 ], [ 107.768319179532568, -6.926311157052063 ] ] ] } },
{ "type": "Feature", "properties": { "id": 9, "name": "asrama 2", "type": "2" }, "geometry": { "type": "MultiLineString", "coordinates": [ [ [ 107.76807478517226, -6.926474086817147 ], [ 107.768091215045246, -6.926491925839101 ] ] ] } },
{ "type": "Feature", "properties": { "id": 10, "name": "asrama 1", "type": "2" }, "geometry": { "type": "MultiLineString", "coordinates": [ [ [ 107.767885499344217, -6.926635997153598 ], [ 107.767896281448358, -6.926649588784768 ] ] ] } }
]
}
