{
  "type": "FeatureCollection",
  "name": "Polygon",
  "crs": { "type": "name", "properties": { "name": "urn:ogc:def:crs:OGC:1.3:CRS84" } },
  "features": [
    {
      "type": "Feature",
      "properties": { "id": 1, "name": "WTP" },
      "geometry": {
        "type": "MultiPolygon",
        "coordinates": [
          [
            [
              [107.766800638919491, -6.926785216379436],
              [107.767021987174985, -6.926752834724615],
              [107.767021987174985, -6.926752834724615],
              [107.767021987174985, -6.926752834724615],
              [107.767087226660777, -6.927169170117123],
              [107.766864325084228, -6.927197696787967],
              [107.766800638919491, -6.926785216379436]
            ]
          ]
        ]
      }
    },
    {
      "type": "Feature",
      "properties": { "id": 2, "name": "OuterTank" },
      "geometry": {
        "type": "MultiPolygon",
        "coordinates": [
          [
            [
              [107.766857140974196, -6.926596516109655],
              [107.766864519249395, -6.926594974125528],
              [107.766867820056689, -6.926595552369575],
              [107.766876945818126, -6.926597479849736],
              [107.766885683249242, -6.926601527558041],
              [107.766892867359303, -6.926607888242455],
              [107.76689985730421, -6.926615790910849],
              [107.766901993120712, -6.926624079075119],
              [107.76690354644181, -6.926631981743242],
              [107.766902963946379, -6.926643546623182],
              [107.76689985730421, -6.926652027534955],
              [107.766893255689581, -6.926661472186528],
              [107.766883159102491, -6.926670724089926],
              [107.766871120864025, -6.926673808057685],
              [107.766856752643918, -6.926673808057685],
              [107.766846461891689, -6.926671109585897],
              [107.766838112790822, -6.926664556154347],
              [107.766829957855123, -6.926655882494806],
              [107.766826268717509, -6.926647787079088],
              [107.766825297891842, -6.926633523727251],
              [107.766826851212926, -6.926622344343074],
              [107.766834811983514, -6.926608273738479],
              [107.766844520240355, -6.926600949313999],
              [107.766857140974196, -6.926596516109655]
            ]
          ]
        ]
      }
    },
    {
      "type": "Feature",
      "properties": { "id": 3, "name": "RumahPompa" },
      "geometry": {
        "type": "MultiPolygon",
        "coordinates": [
          [
            [
              [107.766796755616781, -6.926512477967251],
              [107.766875198331874, -6.926509008502334],
              [107.766877916643793, -6.926567989402445],
              [107.766799085598407, -6.92657184436298],
              [107.766796755616781, -6.926512477967251]
            ]
          ]
        ]
      }
    },
    {
      "type": "Feature",
      "properties": { "id": 4, "name": "Situ" },
      "geometry": {
        "type": "MultiPolygon",
        "coordinates": [
          [
            [
              [107.76647754813267, -6.92725108791728],
              [107.766505507912356, -6.92723798107021],
              [107.766505507912356, -6.92723798107021],
              [107.766505507912356, -6.92723798107021],
              [107.766511721196693, -6.927207141428612],
              [107.766530361049817, -6.927178614758337],
              [107.766571524058719, -6.927180927731666],
              [107.766575407361429, -6.927234126115122],
              [107.766610357085995, -6.927252629899264],
              [107.766652296755439, -6.927288095483508],
              [107.766664723324155, -6.927440751663505],
              [107.766705886333085, -6.927534041526954],
              [107.766730739470518, -6.927745292885061],
              [107.766797532277423, -6.927965025036692],
              [107.766799862259049, -6.928042895002697],
              [107.766817725451588, -6.928119993966269],
              [107.766858111799962, -6.928131558809719],
              [107.766864325084327, -6.928207886769369],
              [107.76687908163467, -6.928249520196695],
              [107.766924904606867, -6.928285756695264],
              [107.766976164202873, -6.928390611228632],
              [107.767046840312474, -6.928478503981282],
              [107.76713770959627, -6.928520908373634],
              [107.767216928971933, -6.928607259124445],
              [107.767271295210094, -6.928742182140933],
              [107.767295371687027, -6.92884009767729],
              [107.767300031650265, -6.928866311281999],
              [107.76732488478774, -6.92890486069804],
              [107.767352067906842, -6.928933387263882],
              [107.76740565748446, -6.929023592879641],
              [107.767425073998098, -6.929070623151098],
              [107.767444490511721, -6.92913924107973],
              [107.766864325084313, -6.929241011472338],
              [107.766843355249577, -6.929140012067635],
              [107.766844908570647, -6.929030531772447],
              [107.766865101744827, -6.929006631141244],
              [107.766825492057009, -6.928850120526321],
              [107.766779669084826, -6.928697464802604],
              [107.766715206259576, -6.928458458267208],
              [107.766677926553399, -6.92835360374893],
              [107.766646860131587, -6.92828267273805],
              [107.766553660866137, -6.927988154730908],
              [107.766545894260659, -6.927884842087963],
              [107.766521041123227, -6.927759941698355],
              [107.766517934481058, -6.927658170986067],
              [107.766542787618491, -6.927561026194757],
              [107.76656919407705, -6.927503972895296],
              [107.766550554223954, -6.927425331849587],
              [107.766521041123227, -6.927386782312588],
              [107.76647754813267, -6.92725108791728]
            ]
          ]
        ]
      }
    },
    {
      "type": "Feature",
      "properties": { "id": 5, "name": "GWT" },
      "geometry": {
        "type": "MultiPolygon",
        "coordinates": [
          [
            [
              [107.76876403677845, -6.92387105129142],
              [107.768816849695554, -6.923834043457105],
              [107.76883548954865, -6.923834043457105],
              [107.76890072903447, -6.923815539538861],
              [107.768919368887566, -6.923877219263524],
              [107.768947328667167, -6.923941982965745],
              [107.768990821657724, -6.92400366267388],
              [107.768987715015527, -6.924049922449691],
              [107.768947328667167, -6.924059174404308],
              [107.768903835676653, -6.924062258389141],
              [107.768854129401745, -6.924056090419456],
              [107.768819956337722, -6.924015998614539],
              [107.76876403677845, -6.92387105129142]
            ]
          ]
        ]
      }
    },
    {
      "type": "Feature",
      "properties": { "id": 6, "name": "Asrama 1" },
      "geometry": {
        "type": "MultiPolygon",
        "coordinates": [
          [
            [
              [107.76794931986629, -6.926844775488746],
              [107.767971066361554, -6.926821645738451],
              [107.767950873187374, -6.926800057970484],
              [107.768033199205206, -6.92672758474223],
              [107.76805494570047, -6.926741462595311],
              [107.768080575498445, -6.926723729782966],
              [107.768422306138476, -6.92710999654439],
              [107.768402889624838, -6.927137752227639],
              [107.76841764617518, -6.927153943042111],
              [107.768337650139003, -6.92723027116],
              [107.768315903643739, -6.927214851339198],
              [107.768289497185194, -6.927231042151027],
              [107.768093778727746, -6.927009767674615],
              [107.768093778727746, -6.927009767674615],
              [107.76794931986629, -6.926844775488746]
            ]
          ]
        ]
      }
    },
    {
      "type": "Feature",
      "properties": { "id": 7, "name": "Asrama 2" },
      "geometry": {
        "type": "MultiPolygon",
        "coordinates": [
          [
            [
              [107.768160571534651, -6.926655882494801],
              [107.768187754653709, -6.926633523727247],
              [107.768169891461199, -6.92661424892678],
              [107.768168338140072, -6.926611164958632],
              [107.76825299413953, -6.926534836740542],
              [107.76827940059809, -6.926564905433993],
              [107.768314350322612, -6.926535607732708],
              [107.768651420999333, -6.926914164732826],
              [107.768618024595895, -6.926938836461593],
              [107.768635887788435, -6.926961966206142],
              [107.768552785110074, -6.927039836337784],
              [107.768532591935895, -6.927023645519393],
              [107.768504632156265, -6.927046004268453],
              [107.768322116928076, -6.926840920530443],
              [107.768160571534651, -6.926655882494801]
            ]
          ]
        ]
      }
    },
    {
      "type": "Feature",
      "properties": { "id": 8, "name": "Asrama 3" },
      "geometry": {
        "type": "MultiPolygon",
        "coordinates": [
          [
            [
              [107.768392016377192, -6.926475470340156],
              [107.768421529477877, -6.926441546679439],
              [107.768405996267006, -6.926429210802207],
              [107.7684696824317, -6.92636598942634],
              [107.768488322284796, -6.926384493244544],
              [107.768533368596437, -6.926352111562211],
              [107.768868885952074, -6.926714477880609],
              [107.768837819530262, -6.926739149619825],
              [107.768850246098992, -6.926766905324897],
              [107.768774133365525, -6.926837836563775],
              [107.768741513622629, -6.926813164829724],
              [107.768716660485168, -6.926844004497087],
              [107.768392016377192, -6.926475470340156]
            ]
          ]
        ]
      }
    },
    {
      "type": "Feature",
      "properties": { "id": 9, "name": "Asrama 4" },
      "geometry": {
        "type": "MultiPolygon",
        "coordinates": [
          [
            [
              [107.768636224099694, -6.926256640922923],
              [107.768620417479369, -6.926231651127443],
              [107.768681302239187, -6.926170048370144],
              [107.768705890315246, -6.926199687433623],
              [107.768749797593941, -6.926163655630718],
              [107.769087005494342, -6.926523973535892],
              [107.769057148544832, -6.926548382158223],
              [107.769077053177838, -6.926572209621661],
              [107.768999190936924, -6.926654152840393],
              [107.768967577696273, -6.926623932647907],
              [107.76894064789866, -6.926655896312977],
              [107.768599927415949, -6.92629034808682],
              [107.768636224099694, -6.926256640922923]
            ]
          ]
        ]
      }
    },
    {
      "type": "Feature",
      "properties": { "id": 10, "name": "Water Tank Asrama 1" },
      "geometry": {
        "type": "MultiPolygon",
        "coordinates": [
          [
            [
              [107.767956527715668, -6.926593039087491],
              [107.768033589319629, -6.926675275685826],
              [107.767909327483252, -6.926784286968492],
              [107.767843825119897, -6.926695356713473],
              [107.767956527715668, -6.926593039087491]
            ]
          ]
        ]
      }
    },
    {
      "type": "Feature",
      "properties": { "id": 11, "name": "Water Tank 2" },
      "geometry": {
        "type": "MultiPolygon",
        "coordinates": [
          [
            [
              [107.768034552589668, -6.926537577187494],
              [107.768171336936661, -6.92642760960787],
              [107.768265737401478, -6.926485940240255],
              [107.768112577463654, -6.926613120118639],
              [107.768034552589668, -6.926537577187494]
            ]
          ]
        ]
      }
    },
    {
      "type": "Feature",
      "properties": { "id": 11, "name": "Water Tank Asrama 3" },
      "geometry": {
        "type": "MultiPolygon",
        "coordinates": [
          [
            [
              [107.768269590481722, -6.926353022887099],
              [107.768387109427707, -6.926244011504751],
              [107.768479583352459, -6.926326248163944],
              [107.7683630276765, -6.926430478327664],
              [107.768269590481722, -6.926353022887099]
            ]
          ]
        ]
      }
    },
    {
      "type": "Feature",
      "properties": { "id": 13, "name": "Water Tanka Asrama 4" },
      "geometry": {
        "type": "MultiPolygon",
        "coordinates": [
          [
            [
              [107.768494995673223, -6.926153168666882],
              [107.768615404429397, -6.926041288516198],
              [107.768696319113516, -6.926123525210738],
              [107.768572057277183, -6.926239230303193],
              [107.768494995673223, -6.926153168666882]
            ]
          ]
        ]
      }
    },
    {
      "type": "Feature",
      "properties": { "id": 12, "name": "Pre Treatment" },
      "geometry": {
        "type": "MultiPolygon",
        "coordinates": [
          [
            [
              [107.767105764956526, -6.92725764398353],
              [107.767171484448383, -6.927248129854018],
              [107.767171484448383, -6.927248129854018],
              [107.767197498413879, -6.927385405132662],
              [107.767137255546373, -6.927396278420352],
              [107.767105764956526, -6.92725764398353]
            ]
          ]
        ]
      }
    }
  ]
}
